{"spkid": "54359256", "covariance": {"epoch": "2460045.5", "elements": [{"name": "e", "sigma": 3.33034009319287e-07, "units": null, "value": ".4324837096269165", "title": "eccentricity", "label": "e"}, {"label": "q", "name": "q", "sigma": 3.86081298817026e-07, "title": "perihelion distance", "value": ".6598443673651286", "units": "au"}, {"units": "TDB", "title": "time of perihelion passage", "value": "2460237.039769261396", "name": "tp", "sigma": 0.000367813578374787, "label": "tp"}, {"label": "node", "units": "deg", "value": "123.7120386275068", "title": "longitude of the ascending node", "name": "om", "sigma": 0.00013959064303112}, {"label": "peri", "sigma": 0.000127895798356012, "name": "w", "units": "deg", "value": "263.0648941940211", "title": "argument of perihelion"}, {"label": "i", "name": "i", "sigma": 1.47981016493878e-05, "units": "deg", "title": "inclination", "value": "11.67509370445552"}], "data": [["1.109116513632787E-13", "-1.284527831283585E-13", "-5.860168392294071E-11", "-1.190310139212689E-11", "-6.428183697854572E-12", "-3.529557054361257E-13"], ["-1.284527831283585E-13", "1.490587692962418E-13", "6.970234664104873E-11", "1.409603144557849E-11", "7.798407765776745E-12", "4.748886456640619E-13"], ["-5.860168392294071E-11", "6.970234664104873E-11", "1.352868284368655E-7", "2.889094243269237E-8", "2.161163641286998E-8", "3.572521487233848E-9"], ["-1.190310139212689E-11", "1.409603144557849E-11", "2.889094243269237E-8", "1.948554762184171E-8", "-8.39531072508247E-9", "-1.354850613576018E-10"], ["-6.428183697854572E-12", "7.798407765776745E-12", "2.161163641286998E-8", "-8.39531072508247E-9", "1.63573352371218E-8", "1.497860693550448E-9"], ["-3.529557054361257E-13", "4.748886456640619E-13", "3.572521487233848E-9", "-1.354850613576018E-10", "1.497860693550448E-9", "2.189838124256151E-10"]], "labels": ["e", "q", "tp", "node", "peri", "i"]}, "elements": [{"sigma": "3.3348E-7", "name": "e", "units": null, "title": "eccentricity", "value": ".4323831350328042", "label": "e"}, {"name": "a", "sigma": "2.9347E-8", "units": "au", "value": "1.162725821149024", "title": "semi-major axis", "label": "a"}, {"label": "q", "name": "q", "sigma": "3.855E-7", "units": "au", "title": "perihelion distance", "value": ".6599827854170173"}, {"value": "11.67559372572241", "title": "inclination; angle with respect to x-y ecliptic plane", "units": "deg", "sigma": "1.4802E-5", "name": "i", "label": "i"}, {"label": "node", "name": "om", "sigma": ".00013958", "units": "deg", "title": "longitude of the ascending node", "value": "123.6953317613425"}, {"label": "peri", "units": "deg", "value": "263.0756002197922", "title": "argument of perihelion", "sigma": ".00012787", "name": "w"}, {"label": "M", "units": "deg", "title": "mean anomaly", "value": "37.41758810678638", "sigma": ".00029522", "name": "ma"}, {"value": "2461152.902111012335", "title": "time of perihelion passage", "units": "TDB", "sigma": ".00037514", "name": "tp", "label": "tp"}, {"name": "per", "sigma": "1.7338E-5", "value": "457.9461398382249", "title": "sidereal orbital period", "units": "d", "label": "period"}, {"title": "mean motion", "value": ".7861186473308289", "units": "deg/d", "sigma": "2.9763E-8", "name": "n", "label": "n"}, {"label": "Q", "title": "aphelion distance", "value": "1.665468856881031", "units": "au", "name": "ad", "sigma": "4.2037E-8"}], "epoch": "2461200.5"}